{
  "type": "FeatureCollection",
  "features": [
    {
      "type": "Feature",
      "properties": {
        "norad_id": 24946,
        "name": "IRIDIUM 33",
        "group": "iridium-33-debris",
        "lat": -47.74970304168063,
        "lon": -112.18373460385449,
        "alt_km": 779.0786743101453,
        "timestamp": "2025-12-23T05:02:12.414780+00:00",
        "meta_object_name": "IRIDIUM 33",
        "meta_object_id": "1997-051C",
        "meta_epoch": "2025-12-22T04:33:00.643392",
        "meta_mean_motion": 14.35043647,
        "meta_eccentricity": 0.00081627,
        "meta_inclination": 86.3861,
        "meta_ra_of_asc_node": 64.2549,
        "meta_arg_of_pericenter": 169.1562,
        "meta_mean_anomaly": 190.9812,
        "meta_ephemeris_type": 0,
        "meta_classification_type": "U",
        "meta_norad_cat_id": 24946,
        "meta_element_set_no": 999,
        "meta_rev_at_epoch": 47970,
        "meta_bstar": 0.00010632795,
        "meta_mean_motion_dot": 3.23e-06,
        "meta_mean_motion_ddot": 0,
        "tle_line1": "1 24946U 97051C   25356.18959078  .00000323  00000+0  10633-3 0  9998",
        "tle_line2": "2 24946  86.3861  64.2549 0008162 169.1562 190.9812 14.35043647479700"
      },
      "geometry": {
        "type": "Point",
        "coordinates": [
          -112.18373460385449,
          -47.74970304168063
        ]
      }
    },
    {
      "type": "Feature",
      "properties": {
        "norad_id": 33773,
        "name": "IRIDIUM 33 DEB",
        "group": "iridium-33-debris",
        "lat": 45.40956307575403,
        "lon": -127.50919179494103,
        "alt_km": 734.9227351029385,
        "timestamp": "2025-12-23T05:02:12.414806+00:00",
        "meta_object_name": "IRIDIUM 33 DEB",
        "meta_object_id": "1997-051L",
        "meta_epoch": "2025-12-22T21:45:40.389408",
        "meta_mean_motion": 14.43277629,
        "meta_eccentricity": 0.00132052,
        "meta_inclination": 86.3999,
        "meta_ra_of_asc_node": 56.2809,
        "meta_arg_of_pericenter": 117.0954,
        "meta_mean_anomaly": 243.1595,
        "meta_ephemeris_type": 0,
        "meta_classification_type": "U",
        "meta_norad_cat_id": 33773,
        "meta_element_set_no": 999,
        "meta_rev_at_epoch": 88494,
        "meta_bstar": 0.00028209624,
        "meta_mean_motion_dot": 9.7e-06,
        "meta_mean_motion_ddot": 0,
        "tle_line1": "1 33773U 97051L   25356.90671747  .00000970  00000+0  28210-3 0  9998",
        "tle_line2": "2 33773  86.3999  56.2809 0013205 117.0954 243.1595 14.43277629884944"
      },
      "geometry": {
        "type": "Point",
        "coordinates": [
          -127.50919179494103,
          45.40956307575403
        ]
      }
    },
    {
      "type": "Feature",
      "properties": {
        "norad_id": 33775,
        "name": "IRIDIUM 33 DEB",
        "group": "iridium-33-debris",
        "lat": 29.202738859673687,
        "lon": -136.95437205077062,
        "alt_km": 742.6577291206295,
        "timestamp": "2025-12-23T05:02:12.414821+00:00",
        "meta_object_name": "IRIDIUM 33 DEB",
        "meta_object_id": "1997-051N",
        "meta_epoch": "2025-12-22T15:36:07.484832",
        "meta_mean_motion": 14.41488344,
        "meta_eccentricity": 0.00151547,
        "meta_inclination": 86.3626,
        "meta_ra_of_asc_node": 45.3222,
        "meta_arg_of_pericenter": 125.0878,
        "meta_mean_anomaly": 2.417,
        "meta_ephemeris_type": 0,
        "meta_classification_type": "U",
        "meta_norad_cat_id": 33775,
        "meta_element_set_no": 999,
        "meta_rev_at_epoch": 88283,
        "meta_bstar": 0.00027383459,
        "meta_mean_motion_dot": 9.09e-06,
        "meta_mean_motion_ddot": 0,
        "tle_line1": "1 33775U 97051N   25356.65008663  .00000909  00000+0  27383-3 0  9995",
        "tle_line2": "2 33775  86.3626  45.3222 0015154 125.0878   2.4170 14.41488344882837"
      },
      "geometry": {
        "type": "Point",
        "coordinates": [
          -136.95437205077062,
          29.202738859673687
        ]
      }
    },
    {
      "type": "Feature",
      "properties": {
        "norad_id": 33776,
        "name": "IRIDIUM 33 DEB",
        "group": "iridium-33-debris",
        "lat": -78.10940378296245,
        "lon": -86.24021521248604,
        "alt_km": 773.9414179353125,
        "timestamp": "2025-12-23T05:02:12.414834+00:00",
        "meta_object_name": "IRIDIUM 33 DEB",
        "meta_object_id": "1997-051P",
        "meta_epoch": "2025-12-22T16:51:39.029184",
        "meta_mean_motion": 14.38251733,
        "meta_eccentricity": 0.00154751,
        "meta_inclination": 86.4032,
        "meta_ra_of_asc_node": 76.592,
        "meta_arg_of_pericenter": 158.5765,
        "meta_mean_anomaly": 354.7393,
        "meta_ephemeris_type": 0,
        "meta_classification_type": "U",
        "meta_norad_cat_id": 33776,
        "meta_element_set_no": 999,
        "meta_rev_at_epoch": 88225,
        "meta_bstar": 0.00024583276,
        "meta_mean_motion_dot": 7.68e-06,
        "meta_mean_motion_ddot": 0,
        "tle_line1": "1 33776U 97051P   25356.70253506  .00000768  00000+0  24583-3 0  9992",
        "tle_line2": "2 33776  86.4032  76.5920 0015475 158.5765 354.7393 14.38251733882255"
      },
      "geometry": {
        "type": "Point",
        "coordinates": [
          -86.24021521248604,
          -78.10940378296245
        ]
      }
    },
    {
      "type": "Feature",
      "properties": {
        "norad_id": 33777,
        "name": "IRIDIUM 33 DEB",
        "group": "iridium-33-debris",
        "lat": -18.774125707646178,
        "lon": 29.41431541447103,
        "alt_km": 715.4586736006631,
        "timestamp": "2025-12-23T05:02:12.414845+00:00",
        "meta_object_name": "IRIDIUM 33 DEB",
        "meta_object_id": "1997-051Q",
        "meta_epoch": "2025-12-22T20:52:27.158592",
        "meta_mean_motion": 14.55680039,
        "meta_eccentricity": 0.00060634,
        "meta_inclination": 86.3772,
        "meta_ra_of_asc_node": 30.7963,
        "meta_arg_of_pericenter": 205.4484,
        "meta_mean_anomaly": 154.6426,
        "meta_ephemeris_type": 0,
        "meta_classification_type": "U",
        "meta_norad_cat_id": 33777,
        "meta_element_set_no": 999,
        "meta_rev_at_epoch": 88681,
        "meta_bstar": 0.00081722537,
        "meta_mean_motion_dot": 3.591e-05,
        "meta_mean_motion_ddot": 0,
        "tle_line1": "1 33777U 97051Q   25356.86975878  .00003591  00000+0  81723-3 0  9999",
        "tle_line2": "2 33777  86.3772  30.7963 0006063 205.4484 154.6426 14.55680039886812"
      },
      "geometry": {
        "type": "Point",
        "coordinates": [
          29.41431541447103,
          -18.774125707646178
        ]
      }
    },
    {
      "type": "Feature",
      "properties": {
        "norad_id": 33850,
        "name": "IRIDIUM 33 DEB",
        "group": "iridium-33-debris",
        "lat": 22.76731338883217,
        "lon": -155.8619320336239,
        "alt_km": 742.6759046417246,
        "timestamp": "2025-12-23T05:02:12.414856+00:00",
        "meta_object_name": "IRIDIUM 33 DEB",
        "meta_object_id": "1997-051T",
        "meta_epoch": "2025-12-22T20:33:02.280096",
        "meta_mean_motion": 14.4216954,
        "meta_eccentricity": 0.00132138,
        "meta_inclination": 86.3408,
        "meta_ra_of_asc_node": 25.8291,
        "meta_arg_of_pericenter": 130.8125,
        "meta_mean_anomaly": 351.5929,
        "meta_ephemeris_type": 0,
        "meta_classification_type": "U",
        "meta_norad_cat_id": 33850,
        "meta_element_set_no": 999,
        "meta_rev_at_epoch": 88298,
        "meta_bstar": 0.00034025083,
        "meta_mean_motion_dot": 1.14e-05,
        "meta_mean_motion_ddot": 0,
        "tle_line1": "1 33850U 97051T   25356.85627639  .00001140  00000+0  34025-3 0  9990",
        "tle_line2": "2 33850  86.3408  25.8291 0013213 130.8125 351.5929 14.42169540882982"
      },
      "geometry": {
        "type": "Point",
        "coordinates": [
          -155.8619320336239,
          22.76731338883217
        ]
      }
    },
    {
      "type": "Feature",
      "properties": {
        "norad_id": 33853,
        "name": "IRIDIUM 33 DEB",
        "group": "iridium-33-debris",
        "lat": 0.017719252952959102,
        "lon": -14.779067199056156,
        "alt_km": 1037.907189879039,
        "timestamp": "2025-12-23T05:02:12.414868+00:00",
        "meta_object_name": "IRIDIUM 33 DEB",
        "meta_object_id": "1997-051W",
        "meta_epoch": "2025-12-22T10:53:52.030752",
        "meta_mean_motion": 13.99110392,
        "meta_eccentricity": 0.02074764,
        "meta_inclination": 86.0002,
        "meta_ra_of_asc_node": 345.5509,
        "meta_arg_of_pericenter": 205.8505,
        "meta_mean_anomaly": 308.872,
        "meta_ephemeris_type": 0,
        "meta_classification_type": "U",
        "meta_norad_cat_id": 33853,
        "meta_element_set_no": 999,
        "meta_rev_at_epoch": 85481,
        "meta_bstar": 0.001219662,
        "meta_mean_motion_dot": 2.14e-05,
        "meta_mean_motion_ddot": 0,
        "tle_line1": "1 33853U 97051W   25356.45407443  .00002140  00000+0  12197-2 0  9994",
        "tle_line2": "2 33853  86.0002 345.5509 0207476 205.8505 308.8720 13.99110392854814"
      },
      "geometry": {
        "type": "Point",
        "coordinates": [
          -14.779067199056156,
          0.017719252952959102
        ]
      }
    }
  ]
}